CCSDS_OMM_VERS = 2.0
CREATION_DATE  = 
ORIGINATOR     = 

OBJECT_NAME    = SL-14 R/B
OBJECT_ID      = 1986-046B
CENTER_NAME    = EARTH
REF_FRAME      = TEME
TIME_SYSTEM    = UTC
MEAN_ELEMENT_THEORY = SGP/SGP4

EPOCH          = 2026-02-08T13:48:00.283392
MEAN_MOTION    = 14.85562003
ECCENTRICITY   = .0022218
INCLINATION    = 82.4815
RA_OF_ASC_NODE = 107.6956
ARG_OF_PERICENTER = 327.5189
MEAN_ANOMALY   = 32.4658

EPHEMERIS_TYPE = 0
CLASSIFICATION_TYPE = U
NORAD_CAT_ID   = 16792
ELEMENT_SET_NO = 999
REV_AT_EPOCH   = 12208
BSTAR          = .5659727E-4
MEAN_MOTION_DOT = .515E-5
MEAN_MOTION_DDOT = 0

CCSDS_OMM_VERS = 2.0
CREATION_DATE  = 
ORIGINATOR     = 

OBJECT_NAME    = SL-14 R/B
OBJECT_ID      = 1986-055B
CENTER_NAME    = EARTH
REF_FRAME      = TEME
TIME_SYSTEM    = UTC
MEAN_ELEMENT_THEORY = SGP/SGP4

EPOCH          = 2026-02-08T10:30:36.088416
MEAN_MOTION    = 14.85611869
ECCENTRICITY   = .00203184
INCLINATION    = 82.5234
RA_OF_ASC_NODE = 154.1594
ARG_OF_PERICENTER = 70.7030
MEAN_ANOMALY   = 356.2508

EPHEMERIS_TYPE = 0
CLASSIFICATION_TYPE = U
NORAD_CAT_ID   = 16882
ELEMENT_SET_NO = 999
REV_AT_EPOCH   = 11502
BSTAR          = .75703042E-4
MEAN_MOTION_DOT = .682E-5
MEAN_MOTION_DDOT = 0

CCSDS_OMM_VERS = 2.0
CREATION_DATE  = 
ORIGINATOR     = 

OBJECT_NAME    = AJISAI (EGS)
OBJECT_ID      = 1986-061A
CENTER_NAME    = EARTH
REF_FRAME      = TEME
TIME_SYSTEM    = UTC
MEAN_ELEMENT_THEORY = SGP/SGP4

EPOCH          = 2026-02-08T15:36:25.263360
MEAN_MOTION    = 12.44515305
ECCENTRICITY   = .00112409
INCLINATION    = 50.0072
RA_OF_ASC_NODE = 182.6433
ARG_OF_PERICENTER = 212.2112
MEAN_ANOMALY   = 243.6308

EPHEMERIS_TYPE = 0
CLASSIFICATION_TYPE = U
NORAD_CAT_ID   = 16908
ELEMENT_SET_NO = 999
REV_AT_EPOCH   = 46438
BSTAR          = .51847817E-4
MEAN_MOTION_DOT = -.9E-6
MEAN_MOTION_DDOT = 0

CCSDS_OMM_VERS = 2.0
CREATION_DATE  = 
ORIGINATOR     = 

OBJECT_NAME    = COSMOS 1812
OBJECT_ID      = 1987-003A
CENTER_NAME    = EARTH
REF_FRAME      = TEME
TIME_SYSTEM    = UTC
MEAN_ELEMENT_THEORY = SGP/SGP4

EPOCH          = 2026-02-08T14:44:39.280992
MEAN_MOTION    = 15.95042553
ECCENTRICITY   = .00011397
INCLINATION    = 82.4778
RA_OF_ASC_NODE = 228.5971
ARG_OF_PERICENTER = 326.2302
MEAN_ANOMALY   = 33.8900

EPHEMERIS_TYPE = 0
CLASSIFICATION_TYPE = U
NORAD_CAT_ID   = 17295
ELEMENT_SET_NO = 999
REV_AT_EPOCH   = 13981
BSTAR          = .71885089E-3
MEAN_MOTION_DOT = .277622E-2
MEAN_MOTION_DDOT = .28470302E-4

CCSDS_OMM_VERS = 2.0
CREATION_DATE  = 
ORIGINATOR     = 

OBJECT_NAME    = SL-14 R/B
OBJECT_ID      = 1987-024B
CENTER_NAME    = EARTH
REF_FRAME      = TEME
TIME_SYSTEM    = UTC
MEAN_ELEMENT_THEORY = SGP/SGP4

EPOCH          = 2026-02-08T06:46:36.533856
MEAN_MOTION    = 14.86103830
ECCENTRICITY   = .0018223
INCLINATION    = 82.5292
RA_OF_ASC_NODE = 120.4026
ARG_OF_PERICENTER = 3.1420
MEAN_ANOMALY   = 356.9907

EPHEMERIS_TYPE = 0
CLASSIFICATION_TYPE = U
NORAD_CAT_ID   = 17567
ELEMENT_SET_NO = 999
REV_AT_EPOCH   = 8376
BSTAR          = .62697E-4
MEAN_MOTION_DOT = .575E-5
MEAN_MOTION_DDOT = 0

CCSDS_OMM_VERS = 2.0
CREATION_DATE  = 
ORIGINATOR     = 

OBJECT_NAME    = COSMOS 1833
OBJECT_ID      = 1987-027A
CENTER_NAME    = EARTH
REF_FRAME      = TEME
TIME_SYSTEM    = UTC
MEAN_ELEMENT_THEORY = SGP/SGP4

EPOCH          = 2026-02-08T09:53:02.713344
MEAN_MOTION    = 14.13056433
ECCENTRICITY   = .00248892
INCLINATION    = 70.9213
RA_OF_ASC_NODE = 27.5496
ARG_OF_PERICENTER = 253.7329
MEAN_ANOMALY   = 106.1054

EPHEMERIS_TYPE = 0
CLASSIFICATION_TYPE = U
NORAD_CAT_ID   = 17589
ELEMENT_SET_NO = 999
REV_AT_EPOCH   = 618
BSTAR          = .54930191E-4
MEAN_MOTION_DOT = .55E-6
MEAN_MOTION_DDOT = 0

CCSDS_OMM_VERS = 2.0
CREATION_DATE  = 
ORIGINATOR     = 

OBJECT_NAME    = SL-16 R/B
OBJECT_ID      = 1987-027B
CENTER_NAME    = EARTH
REF_FRAME      = TEME
TIME_SYSTEM    = UTC
MEAN_ELEMENT_THEORY = SGP/SGP4

EPOCH          = 2026-02-08T06:12:17.384256
MEAN_MOTION    = 14.17163520
ECCENTRICITY   = .0005114
INCLINATION    = 71.0050
RA_OF_ASC_NODE = 338.5119
ARG_OF_PERICENTER = 193.9428
MEAN_ANOMALY   = 166.1555

EPHEMERIS_TYPE = 0
CLASSIFICATION_TYPE = U
NORAD_CAT_ID   = 17590
ELEMENT_SET_NO = 999
REV_AT_EPOCH   = 1117
BSTAR          = -.65451E-4
MEAN_MOTION_DOT = -.18E-5
MEAN_MOTION_DDOT = 0

CCSDS_OMM_VERS = 2.0
CREATION_DATE  = 
ORIGINATOR     = 

OBJECT_NAME    = SL-14 R/B
OBJECT_ID      = 1987-038B
CENTER_NAME    = EARTH
REF_FRAME      = TEME
TIME_SYSTEM    = UTC
MEAN_ELEMENT_THEORY = SGP/SGP4

EPOCH          = 2026-02-08T06:17:32.136864
MEAN_MOTION    = 14.85340160
ECCENTRICITY   = .0017698
INCLINATION    = 82.5042
RA_OF_ASC_NODE = 324.5227
ARG_OF_PERICENTER = 261.5737
MEAN_ANOMALY   = 98.3473

EPHEMERIS_TYPE = 0
CLASSIFICATION_TYPE = U
NORAD_CAT_ID   = 17912
ELEMENT_SET_NO = 999
REV_AT_EPOCH   = 7486
BSTAR          = .74722E-4
MEAN_MOTION_DOT = .668E-5
MEAN_MOTION_DDOT = 0

CCSDS_OMM_VERS = 2.0
CREATION_DATE  = 
ORIGINATOR     = 

OBJECT_NAME    = COSMOS 1844
OBJECT_ID      = 1987-041A
CENTER_NAME    = EARTH
REF_FRAME      = TEME
TIME_SYSTEM    = UTC
MEAN_ELEMENT_THEORY = SGP/SGP4

EPOCH          = 2026-02-08T13:10:08.282208
MEAN_MOTION    = 14.14540416
ECCENTRICITY   = .00288491
INCLINATION    = 70.8980
RA_OF_ASC_NODE = 95.6449
ARG_OF_PERICENTER = 64.7106
MEAN_ANOMALY   = 295.6999

EPHEMERIS_TYPE = 0
CLASSIFICATION_TYPE = U
NORAD_CAT_ID   = 17973
ELEMENT_SET_NO = 999
REV_AT_EPOCH   = 99946
BSTAR          = .22906395E-3
MEAN_MOTION_DOT = .393E-5
MEAN_MOTION_DDOT = 0

CCSDS_OMM_VERS = 2.0
CREATION_DATE  = 
ORIGINATOR     = 

OBJECT_NAME    = SL-14 R/B
OBJECT_ID      = 1987-055B
CENTER_NAME    = EARTH
REF_FRAME      = TEME
TIME_SYSTEM    = UTC
MEAN_ELEMENT_THEORY = SGP/SGP4

EPOCH          = 2026-02-08T09:05:41.013024
MEAN_MOTION    = 14.85592752
ECCENTRICITY   = .00221968
INCLINATION    = 82.4996
RA_OF_ASC_NODE = 16.6517
ARG_OF_PERICENTER = 109.0329
MEAN_ANOMALY   = 251.3295

EPHEMERIS_TYPE = 0
CLASSIFICATION_TYPE = U
NORAD_CAT_ID   = 18153
ELEMENT_SET_NO = 999
REV_AT_EPOCH   = 6558
BSTAR          = .74867628E-4
MEAN_MOTION_DOT = .675E-5
MEAN_MOTION_DDOT = 0

CCSDS_OMM_VERS = 2.0
CREATION_DATE  = 
ORIGINATOR     = 

OBJECT_NAME    = COSMOS 1867
OBJECT_ID      = 1987-060A
CENTER_NAME    = EARTH
REF_FRAME      = TEME
TIME_SYSTEM    = UTC
MEAN_ELEMENT_THEORY = SGP/SGP4

EPOCH          = 2026-02-08T09:05:29.514912
MEAN_MOTION    = 14.31498233
ECCENTRICITY   = .00141005
INCLINATION    = 65.0111
RA_OF_ASC_NODE = 28.7868
ARG_OF_PERICENTER = 276.4738
MEAN_ANOMALY   = 83.4741

EPHEMERIS_TYPE = 0
CLASSIFICATION_TYPE = U
NORAD_CAT_ID   = 18187
ELEMENT_SET_NO = 999
REV_AT_EPOCH   = 1574
BSTAR          = .38382227E-4
MEAN_MOTION_DOT = .2E-7
MEAN_MOTION_DDOT = 0

CCSDS_OMM_VERS = 2.0
CREATION_DATE  = 
ORIGINATOR     = 

OBJECT_NAME    = SL-14 R/B
OBJECT_ID      = 1988-001B
CENTER_NAME    = EARTH
REF_FRAME      = TEME
TIME_SYSTEM    = UTC
MEAN_ELEMENT_THEORY = SGP/SGP4

EPOCH          = 2026-02-08T13:47:00.467808
MEAN_MOTION    = 14.85492511
ECCENTRICITY   = .0017497
INCLINATION    = 82.5106
RA_OF_ASC_NODE = 222.7454
ARG_OF_PERICENTER = 339.3121
MEAN_ANOMALY   = 20.7385

EPHEMERIS_TYPE = 0
CLASSIFICATION_TYPE = U
NORAD_CAT_ID   = 18749
ELEMENT_SET_NO = 999
REV_AT_EPOCH   = 3770
BSTAR          = .63516647E-4
MEAN_MOTION_DOT = .573E-5
MEAN_MOTION_DDOT = 0

